*******************************************************************************JPL/HORIZONS                  1 Ceres (A801 AA)            2021-Jan-29 14:20:29Rec #:       1 (+COV) Soln.date: 2020-May-20_11:11:55   # obs: 1030 (1995-2020) IAU76/J2000 helio. ecliptic osc. elements (au, days, deg., period=Julian yrs):   EPOCH=  2454061.5 ! 2006-Nov-22.00 (TDB)         Residual RMS= .24184   EC= .07985681703215082  QR= 2.544823927206557   TP= 2454873.5774668744   OM= 80.40822338295483   W=  73.18422155550952   IN= 10.58670363476912   A= 2.765682531058295    MA= 185.9804488570544   ADIST= 2.986541134910033   PER= 4.59951            N= .214289342           ANGMOM= .028516315   DAN= 2.68599            DDN= 2.81303            L= 153.318086   B= 10.1291284           MOID= 1.57983994        TP= 2009-Feb-11.0774668744 Asteroid physical parameters (km, seconds, rotational period in hours):   GM= 62.6284             RAD= 469.7              ROTPER= 9.07417   H= 3.4                  G= .120                 B-V= .713                           ALBEDO= .090            STYP= C ASTEROID comments: 1: soln ref.= JPL#47, OCC=0           radar(60 delay, 0 Dop.)2: source=ORB*******************************************************************************  *******************************************************************************Ephemeris / WWW_USER Fri Jan 29 14:20:29 2021 Pasadena, USA      / Horizons*******************************************************************************Target body name: 1 Ceres (A801 AA)               {source: JPL#47}Center body name: Solar System Barycenter (0)     {source: DE431}Center-site name: BODY CENTER*******************************************************************************Start time      : A.D. 2021-Jan-01 00:00:00.0000 TDBStop  time      : A.D. 2021-Jan-02 00:00:00.0000 TDBStep-size       : 1440 minutes*******************************************************************************Center geodetic : 0.00000000,0.00000000,0.0000000 {E-lon(deg),Lat(deg),Alt(km)}Center cylindric: 0.00000000,0.00000000,0.0000000 {E-lon(deg),Dxy(km),Dz(km)}Center radii    : (undefined)                                                  Small perturbers: Yes                             {source: SB431-N16}Output units    : KM-SOutput type     : GEOMETRIC cartesian statesOutput format   : 2 (position and velocity)Reference frame : Ecliptic of J2000.0*******************************************************************************Initial IAU76/J2000 heliocentric ecliptic osculating elements (au, days, deg.):  EPOCH=  2454061.5 ! 2006-Nov-22.00 (TDB)         Residual RMS= .24184           EC= .07985681703215082  QR= 2.544823927206557   TP= 2454873.5774668744         OM= 80.40822338295483   W=  73.18422155550952   IN= 10.58670363476912         Equivalent ICRF heliocentric equatorial cartesian coordinates (au, au/d):   X= 2.732617277025615E+00  Y=-7.734822664676754E-01  Z=-9.207592896905449E-01  VX= 3.368590810386608E-03 VY= 8.330863405401928E-03 VZ= 3.238410491551668E-03Asteroid physical parameters (km, seconds, rotational period in hours):           GM= 62.6284             RAD= 469.7              ROTPER= 9.07417                H= 3.4                  G= .120                 B-V= .713                                              ALBEDO= .090            STYP= C                     *******************************************************************************            JDTDB,            Calendar Date (TDB),                      X,                      Y,                      Z,                     VX,                     VY,                     VZ,**************************************************************************************************************************************************************************************************$$SOE2459215.500000000, A.D. 2021-Jan-01 00:00:00.0000,  4.342466295544251E+08, -7.185052558755793E+06, -8.042782510238674E+07, -1.972313765406339E-01,  1.667847143465983E+01,  5.616588744775184E-01,2459216.500000000, A.D. 2021-Jan-02 00:00:00.0000,  4.342271034389044E+08, -5.743990556874096E+06, -8.037883834131789E+07, -2.547649427096097E-01,  1.667941357488533E+01,  5.722934599018448E-01,$$EOE**************************************************************************************************************************************************************************************************Coordinate system description:  Ecliptic at the standard reference epoch    Reference epoch: J2000.0    X-Y plane: adopted Earth orbital plane at the reference epoch               Note: obliquity of 84381.448 arcseconds (IAU76) wrt ICRF equator    X-axis   : ICRF    Z-axis   : perpendicular to the X-Y plane in the directional (+ or -) sense               of Earth's north pole at the reference epoch.  Symbol meaning:    JDTDB    Julian Day Number, Barycentric Dynamical Time      X      X-component of position vector (km)      Y      Y-component of position vector (km)      Z      Z-component of position vector (km)      VX     X-component of velocity vector (km/sec)                                 VY     Y-component of velocity vector (km/sec)                                 VZ     Z-component of velocity vector (km/sec)                           Geometric states/elements have no aberrations applied. Computations by ...     Solar System Dynamics Group, Horizons On-Line Ephemeris System     4800 Oak Grove Drive, Jet Propulsion Laboratory     Pasadena, CA  91109   USA     Information  : https://ssd.jpl.nasa.gov/     Documentation: https://ssd.jpl.nasa.gov/?horizons_doc     Connect      : https://ssd.jpl.nasa.gov/?horizons (browser)                    telnet ssd.jpl.nasa.gov 6775       (command-line)                    e-mail command interface available                    Script and CGI interfaces available     Author       : Jon.D.Giorgini@jpl.nasa.gov*******************************************************************************